{"fetched_at":"2026-04-14T09:19:05Z","count":7211,"tles":[{"name":"CANVAS","line1":"1 68635U 26074J   26103.29688790  .00007215  00000+0  30607-3 0  9991","line2":"2 68635  60.0233  67.0838 0018229 323.9686  36.0164 15.23942077   892","category":"Other"}]}