{
  "norad_id": 68635,
  "name": "CANVAS",
  "history": [
    {
      "epoch": "2026-04-13T07:07:31.114560Z",
      "apogee_km": 506.49143842855665,
      "perigee_km": 481.4365827959846,
      "latitude_deg": -2.532399528696659e-05,
      "longitude_deg": 118.71444631029178,
      "height_km": 485.43928714283555,
      "semi_major_axis_km": 6872.10101061227,
      "eccentricity": 0.00182294,
      "inclination_deg": 60.0233,
      "raan_deg": 67.0838,
      "arg_perigee_deg": 323.9686,
      "mean_anomaly_deg": 36.0164,
      "mean_motion_rev_day": 15.23942077
    }
  ]
}